{
  "type": "FeatureCollection",
  "features": [
    {
      "type": "Feature",
      "properties": {
        "norad_id": 34728,
        "name": "COSMOS 2251 DEB",
        "group": "cosmos-2251-debris",
        "lat": 41.1678304603069,
        "lon": 32.85368702317572,
        "alt_km": 666.7329287011462,
        "timestamp": "2025-12-25T07:00:34.443235+00:00",
        "meta_object_name": "COSMOS 2251 DEB",
        "meta_object_id": "1993-036YW",
        "meta_epoch": "2025-12-24T18:58:01.576992",
        "meta_mean_motion": 14.70944014,
        "meta_eccentricity": 0.00416127,
        "meta_inclination": 74.0153,
        "meta_ra_of_asc_node": 228.3452,
        "meta_arg_of_pericenter": 22.7182,
        "meta_mean_anomaly": 337.5818,
        "meta_ephemeris_type": 0,
        "meta_classification_type": "U",
        "meta_norad_cat_id": 34728,
        "meta_element_set_no": 999,
        "meta_rev_at_epoch": 88977,
        "meta_bstar": 0.00063115346,
        "meta_mean_motion_dot": 3.889e-05,
        "meta_mean_motion_ddot": 0,
        "tle_line1": "1 34728U 93036YW  25358.79029603  .00003889  00000+0  63115-3 0  9990",
        "tle_line2": "2 34728  74.0153 228.3452 0041612  22.7182 337.5818 14.70944014889776"
      },
      "geometry": {
        "type": "Point",
        "coordinates": [
          32.85368702317572,
          41.1678304603069
        ]
      }
    },
    {
      "type": "Feature",
      "properties": {
        "norad_id": 34729,
        "name": "COSMOS 2251 DEB",
        "group": "cosmos-2251-debris",
        "lat": -24.443202157332507,
        "lon": -33.92393726678937,
        "alt_km": 627.6674277651191,
        "timestamp": "2025-12-25T07:00:34.443245+00:00",
        "meta_object_name": "COSMOS 2251 DEB",
        "meta_object_id": "1993-036YX",
        "meta_epoch": "2025-12-24T09:08:27.123072",
        "meta_mean_motion": 14.83119806,
        "meta_eccentricity": 0.00120008,
        "meta_inclination": 74.0186,
        "meta_ra_of_asc_node": 335.3656,
        "meta_arg_of_pericenter": 88.0196,
        "meta_mean_anomaly": 63.6248,
        "meta_ephemeris_type": 0,
        "meta_classification_type": "U",
        "meta_norad_cat_id": 34729,
        "meta_element_set_no": 999,
        "meta_rev_at_epoch": 88630,
        "meta_bstar": 0.0021850435,
        "meta_mean_motion_dot": 0.00017847,
        "meta_mean_motion_ddot": 0,
        "tle_line1": "1 34729U 93036YX  25358.38086948  .00017847  00000+0  21850-2 0  9999",
        "tle_line2": "2 34729  74.0186 335.3656 0012000  88.0196  63.6248 14.83119806886304"
      },
      "geometry": {
        "type": "Point",
        "coordinates": [
          -33.92393726678937,
          -24.443202157332507
        ]
      }
    },
    {
      "type": "Feature",
      "properties": {
        "norad_id": 34732,
        "name": "COSMOS 2251 DEB",
        "group": "cosmos-2251-debris",
        "lat": 29.345559124782586,
        "lon": 78.9880334610219,
        "alt_km": 760.985794722782,
        "timestamp": "2025-12-25T07:00:34.443255+00:00",
        "meta_object_name": "COSMOS 2251 DEB",
        "meta_object_id": "1993-036ZA",
        "meta_epoch": "2025-12-22T16:32:23.959680",
        "meta_mean_motion": 14.47311087,
        "meta_eccentricity": 0.00401751,
        "meta_inclination": 74.0456,
        "meta_ra_of_asc_node": 74.5946,
        "meta_arg_of_pericenter": 223.757,
        "meta_mean_anomaly": 290.4905,
        "meta_ephemeris_type": 0,
        "meta_classification_type": "U",
        "meta_norad_cat_id": 34732,
        "meta_element_set_no": 999,
        "meta_rev_at_epoch": 88287,
        "meta_bstar": 0.00012395205,
        "meta_mean_motion_dot": 4.3e-06,
        "meta_mean_motion_ddot": 0,
        "tle_line1": "1 34732U 93036ZA  25356.68916620  .00000430  00000+0  12395-3 0  9998",
        "tle_line2": "2 34732  74.0456  74.5946 0040175 223.7570 290.4905 14.47311087882873"
      },
      "geometry": {
        "type": "Point",
        "coordinates": [
          78.9880334610219,
          29.345559124782586
        ]
      }
    },
    {
      "type": "Feature",
      "properties": {
        "norad_id": 34736,
        "name": "COSMOS 2251 DEB",
        "group": "cosmos-2251-debris",
        "lat": -67.72237266964744,
        "lon": -127.03293857900276,
        "alt_km": 394.412552165365,
        "timestamp": "2025-12-25T07:00:34.443265+00:00",
        "meta_object_name": "COSMOS 2251 DEB",
        "meta_object_id": "1993-036ZE",
        "meta_epoch": "2025-12-24T11:26:27.424320",
        "meta_mean_motion": 15.58595857,
        "meta_eccentricity": 0.00114664,
        "meta_inclination": 73.9975,
        "meta_ra_of_asc_node": 10.3121,
        "meta_arg_of_pericenter": 337.4584,
        "meta_mean_anomaly": 22.6128,
        "meta_ephemeris_type": 0,
        "meta_classification_type": "U",
        "meta_norad_cat_id": 34736,
        "meta_element_set_no": 999,
        "meta_rev_at_epoch": 88630,
        "meta_bstar": 0.0077129006,
        "meta_mean_motion_dot": 0.00641796,
        "meta_mean_motion_ddot": 0,
        "tle_line1": "1 34736U 93036ZE  25358.47670630  .00641796  00000+0  77129-2 0  9990",
        "tle_line2": "2 34736  73.9975  10.3121 0011466 337.4584  22.6128 15.58595857886309"
      },
      "geometry": {
        "type": "Point",
        "coordinates": [
          -127.03293857900276,
          -67.72237266964744
        ]
      }
    },
    {
      "type": "Feature",
      "properties": {
        "norad_id": 34738,
        "name": "COSMOS 2251 DEB",
        "group": "cosmos-2251-debris",
        "lat": 17.893115644863947,
        "lon": 125.11581687482678,
        "alt_km": 751.8715375693573,
        "timestamp": "2025-12-25T07:00:34.443275+00:00",
        "meta_object_name": "COSMOS 2251 DEB",
        "meta_object_id": "1993-036ZG",
        "meta_epoch": "2025-12-24T18:13:40.925280",
        "meta_mean_motion": 14.46329097,
        "meta_eccentricity": 0.00475802,
        "meta_inclination": 74.0156,
        "meta_ra_of_asc_node": 120.8009,
        "meta_arg_of_pericenter": 264.8662,
        "meta_mean_anomaly": 221.5623,
        "meta_ephemeris_type": 0,
        "meta_classification_type": "U",
        "meta_norad_cat_id": 34738,
        "meta_element_set_no": 999,
        "meta_rev_at_epoch": 88032,
        "meta_bstar": 0.00032321073,
        "meta_mean_motion_dot": 1.147e-05,
        "meta_mean_motion_ddot": 0,
        "tle_line1": "1 34738U 93036ZG  25358.75950145  .00001147  00000+0  32321-3 0  9991",
        "tle_line2": "2 34738  74.0156 120.8009 0047580 264.8662 221.5623 14.46329097880325"
      },
      "geometry": {
        "type": "Point",
        "coordinates": [
          125.11581687482678,
          17.893115644863947
        ]
      }
    },
    {
      "type": "Feature",
      "properties": {
        "norad_id": 34750,
        "name": "COSMOS 2251 DEB",
        "group": "cosmos-2251-debris",
        "lat": 41.83004356488071,
        "lon": -16.92160049494526,
        "alt_km": 658.0748547576031,
        "timestamp": "2025-12-25T07:00:34.443286+00:00",
        "meta_object_name": "COSMOS 2251 DEB",
        "meta_object_id": "1993-036ZU",
        "meta_epoch": "2025-12-24T12:27:17.333568",
        "meta_mean_motion": 14.61435386,
        "meta_eccentricity": 0.00383064,
        "meta_inclination": 74.1068,
        "meta_ra_of_asc_node": 179.3245,
        "meta_arg_of_pericenter": 128.3135,
        "meta_mean_anomaly": 261.8167,
        "meta_ephemeris_type": 0,
        "meta_classification_type": "U",
        "meta_norad_cat_id": 34750,
        "meta_element_set_no": 999,
        "meta_rev_at_epoch": 88403,
        "meta_bstar": 0.001170941,
        "meta_mean_motion_dot": 5.835e-05,
        "meta_mean_motion_ddot": 0,
        "tle_line1": "1 34750U 93036ZU  25358.51895062  .00005835  00000+0  11709-2 0  9999",
        "tle_line2": "2 34750  74.1068 179.3245 0038306 128.3135 261.8167 14.61435386884036"
      },
      "geometry": {
        "type": "Point",
        "coordinates": [
          -16.92160049494526,
          41.83004356488071
        ]
      }
    },
    {
      "type": "Feature",
      "properties": {
        "norad_id": 34752,
        "name": "COSMOS 2251 DEB",
        "group": "cosmos-2251-debris",
        "lat": -41.94827403861138,
        "lon": 169.98428745046135,
        "alt_km": 591.0659541460673,
        "timestamp": "2025-12-25T07:00:34.443296+00:00",
        "meta_object_name": "COSMOS 2251 DEB",
        "meta_object_id": "1993-036ZW",
        "meta_epoch": "2025-12-24T15:36:52.653024",
        "meta_mean_motion": 15.00197645,
        "meta_eccentricity": 0.00474874,
        "meta_inclination": 74.0138,
        "meta_ra_of_asc_node": 336.3583,
        "meta_arg_of_pericenter": 100.9659,
        "meta_mean_anomaly": 259.6875,
        "meta_ephemeris_type": 0,
        "meta_classification_type": "U",
        "meta_norad_cat_id": 34752,
        "meta_element_set_no": 999,
        "meta_rev_at_epoch": 90028,
        "meta_bstar": 0.0010638219,
        "meta_mean_motion_dot": 0.00013607,
        "meta_mean_motion_ddot": 0,
        "tle_line1": "1 34752U 93036ZW  25358.65060941  .00013607  00000+0  10638-2 0  9992",
        "tle_line2": "2 34752  74.0138 336.3583 0047487 100.9659 259.6875 15.00197645900286"
      },
      "geometry": {
        "type": "Point",
        "coordinates": [
          169.98428745046135,
          -41.94827403861138
        ]
      }
    }
  ]
}